[{"OBJECT_NAME":"STARLINK-5590","OBJECT_ID":"2023-013AS","EPOCH":"2026-03-08T02:35:28.705632","MEAN_MOTION":15.02537453,"ECCENTRICITY":0.0001034,"INCLINATION":43.0046,"RA_OF_ASC_NODE":321.7296,"ARG_OF_PERICENTER":283.4994,"MEAN_ANOMALY":76.5734,"EPHEMERIS_TYPE":0,"CLASSIFICATION_TYPE":"U","NORAD_CAT_ID":55371,"ELEMENT_SET_NO":999,"REV_AT_EPOCH":17224,"BSTAR":1.980854e-5,"MEAN_MOTION_DOT":6.4e-7,"MEAN_MOTION_DDOT":0},{"OBJECT_NAME":"NAXING 1","OBJECT_ID":"2004-012B","EPOCH":"2026-03-09T22:31:20.183520","MEAN_MOTION":15.05443462,"ECCENTRICITY":0.00121665,"INCLINATION":98.0152,"RA_OF_ASC_NODE":92.9199,"ARG_OF_PERICENTER":69.4128,"MEAN_ANOMALY":290.8402,"EPHEMERIS_TYPE":0,"CLASSIFICATION_TYPE":"U","NORAD_CAT_ID":28221,"ELEMENT_SET_NO":999,"REV_AT_EPOCH":19231,"BSTAR":0.00025838798,"MEAN_MOTION_DOT":3.649e-5,"MEAN_MOTION_DDOT":0}]
